OBJECT_NAME,OBJECT_ID,EPOCH,MEAN_MOTION,ECCENTRICITY,INCLINATION,RA_OF_ASC_NODE,ARG_OF_PERICENTER,MEAN_ANOMALY,EPHEMERIS_TYPE,CLASSIFICATION_TYPE,NORAD_CAT_ID,ELEMENT_SET_NO,REV_AT_EPOCH,BSTAR,MEAN_MOTION_DOT,MEAN_MOTION_DDOT
STARLINK-37531,2026-110N,2026-06-05T07:05:28.159584,15.78987781,.00032797,97.2844,352.5294,134.2627,225.8910,0,U,69136,999,376,-.51591099E-2,-.828314E-2,0
STARLINK-37662,2026-110P,2026-06-05T06:00:04.999968,15.74646538,.00019638,97.2850,352.4766,84.4888,6.1876,0,U,69137,999,374,-.18267749E-1,-.2307333E-1,0
STARLINK-37658,2026-110Q,2026-06-05T06:00:04.999968,15.67652305,.00016633,97.2849,352.4545,77.7723,320.6373,0,U,69138,999,374,-.27437064E-1,-.2596046E-1,0
STARLINK-37659,2026-110R,2026-06-05T06:00:04.999968,15.65639113,.00015914,97.2847,352.4459,75.0250,305.0080,0,U,69139,999,374,-.29009173E-1,-.2538012E-1,0
STARLINK-37653,2026-110S,2026-06-05T06:00:04.999968,15.64389098,.00015258,97.2846,352.4467,79.7609,301.3526,0,U,69140,999,374,-.31212766E-1,-.2589337E-1,0
STARLINK-37654,2026-110T,2026-06-05T06:00:04.999968,15.74661776,.00011117,97.2848,352.4850,99.3087,12.9430,0,U,69141,999,374,-.15628945E-1,-.1972538E-1,0
STARLINK-37655,2026-110U,2026-06-05T06:00:04.999968,15.76051240,.00017515,97.2849,352.4885,76.0097,43.9200,0,U,69142,999,374,-.1455017E-1,-.1955453E-1,0
STARLINK-37636,2026-110V,2026-06-05T06:57:20.249280,15.80858587,.00013057,97.2845,352.5377,88.1397,272.0021,0,U,69143,999,376,.88361883E-3,.172843E-2,0
STARLINK-37638,2026-110W,2026-06-05T06:56:15.144288,15.80874322,.00016556,97.2846,352.5385,78.9487,281.1967,0,U,69144,999,376,.85946518E-3,.168147E-2,0
STARLINK-37657,2026-110X,2026-06-05T06:00:04.999968,15.74682861,.00018105,97.2854,352.4911,77.0196,47.6017,0,U,69145,999,379,-.19209554E-1,-.2412061E-1,0
STARLINK-37639,2026-110Y,2026-06-05T05:22:56.051904,15.80875142,.00015705,97.2846,352.4732,106.6560,253.4881,0,U,69146,999,375,.10507E-2,.206511E-2,0
STARLINK-37661,2026-110Z,2026-06-05T06:00:04.999968,15.68527729,.0001893,97.2853,352.4801,78.3417,19.3922,0,U,69147,999,379,-.26745691E-1,-.2619977E-1,0
STARLINK-37395,2026-111A,2026-06-05T06:00:04.999968,15.80869827,.00013931,53.1583,211.4859,90.0559,220.6846,0,U,69148,999,362,.22260763E-3,.43452E-3,0
STARLINK-37346,2026-111B,2026-06-05T06:00:04.999968,15.80872275,.00008477,53.1582,211.4735,75.0714,241.6081,0,U,69149,999,362,.29706101E-3,.58326E-3,0
STARLINK-37332,2026-111C,2026-06-05T06:00:04.999968,15.80878243,.00009541,53.1585,211.4570,83.7328,240.7243,0,U,69150,999,362,.12877993E-3,.24797E-3,0
STARLINK-37297,2026-111D,2026-06-05T06:00:04.999968,15.80895593,.00011711,53.1584,211.4708,78.9139,238.9991,0,U,69151,999,362,-.5339723E-5,-.1754E-4,0
STARLINK-37317,2026-111E,2026-06-05T06:00:04.999968,15.80864338,.00012959,53.1582,211.4476,101.6317,227.4630,0,U,69152,999,362,.33044469E-3,.64986E-3,0
STARLINK-37374,2026-111F,2026-06-05T06:00:04.999968,15.80925793,.00010996,53.1585,211.4299,96.2408,241.1133,0,U,69153,999,362,-.42531052E-3,-.84033E-3,0
STARLINK-37235,2026-111G,2026-06-05T06:00:04.999968,15.80945353,.00013373,53.1586,211.4378,53.2650,280.4366,0,U,69154,999,362,-.70724556E-3,-.138538E-2,0
STARLINK-37329,2026-111H,2026-06-05T06:00:04.999968,15.80972139,.0000905,53.1584,211.4527,84.0573,242.4607,0,U,69155,999,362,-.88111762E-3,-.171968E-2,0
STARLINK-37345,2026-111J,2026-06-05T06:00:04.999968,15.80871174,.00012841,53.1586,211.4359,51.9251,282.8412,0,U,69156,999,362,.20624228E-3,.40193E-3,0
STARLINK-37353,2026-111K,2026-06-05T06:00:04.999968,15.80868900,.0000928,53.1586,211.4331,84.2820,251.7166,0,U,69157,999,362,.24068687E-3,.47055E-3,0
STARLINK-37363,2026-111L,2026-06-05T06:00:04.999968,15.80943191,.00010692,53.1585,211.4089,97.8681,249.8352,0,U,69158,999,362,.21891907E-3,.42863E-3,0
STARLINK-37343,2026-111M,2026-06-05T06:00:04.999968,15.80880839,.00011443,53.1588,211.3997,82.7379,269.3776,0,U,69159,999,362,-.14663892E-4,-.3593E-4,0
STARLINK-37328,2026-111N,2026-06-05T06:00:04.999968,15.80897172,.00008175,53.1587,211.4069,114.1735,234.2417,0,U,69160,999,362,.54832803E-3,.10902E-2,0
STARLINK-37311,2026-111P,2026-06-05T06:00:04.999968,15.80742586,.00010937,53.1588,211.3939,102.3960,252.4056,0,U,69161,999,362,.4750639E-3,.93518E-3,0
STARLINK-36286,2026-111Q,2026-06-05T06:00:04.999968,15.80861395,.00011354,53.1588,211.3852,114.6728,244.3528,0,U,69162,999,362,.41557712E-3,.82061E-3,0
STARLINK-37196,2026-111R,2026-06-05T06:00:04.999968,15.78168999,.00007781,53.1589,211.3868,77.7549,280.1327,0,U,69163,999,362,-.73175603E-3,-.126498E-2,0
STARLINK-36288,2026-111S,2026-06-05T06:00:04.999968,15.78095445,.00008572,53.1591,211.3771,95.1081,267.4138,0,U,69164,999,362,-.41062124E-3,-.71496E-3,0
STARLINK-37445,2026-111T,2026-06-05T06:00:04.999968,15.80872076,.00011369,53.1587,211.3615,111.1118,259.3411,0,U,69165,999,362,.23544467E-3,.46016E-3,0
