STARLINK-37531          
1 69136U 26110N   26156.29546481 -.00828314  00000+0 -51591-2 0  9994
2 69136  97.2844 352.5294 0003279 134.2627 225.8910 15.78987781  3761
STARLINK-37662          
1 69137U 26110P   26156.25005787 -.02307333  00000+0 -18268-1 0  9998
2 69137  97.2850 352.4766 0001963  84.4888   6.1876 15.74646538  3742
STARLINK-37658          
1 69138U 26110Q   26156.25005787 -.02596046  00000+0 -27437-1 0  9998
2 69138  97.2849 352.4545 0001663  77.7723 320.6373 15.67652305  3743
STARLINK-37659          
1 69139U 26110R   26156.25005787 -.02538012  00000+0 -29009-1 0  9995
2 69139  97.2847 352.4459 0001591  75.0250 305.0080 15.65639113  3744
STARLINK-37653          
1 69140U 26110S   26156.25005787 -.02589337  00000+0 -31213-1 0  9993
2 69140  97.2846 352.4467 0001525  79.7609 301.3526 15.64389098  3747
STARLINK-37654          
1 69141U 26110T   26156.25005787 -.01972538  00000+0 -15629-1 0  9995
2 69141  97.2848 352.4850 0001111  99.3087  12.9430 15.74661776  3741
STARLINK-37655          
1 69142U 26110U   26156.25005787 -.01955453  00000+0 -14550-1 0  9995
2 69142  97.2849 352.4885 0001751  76.0097  43.9200 15.76051240  3744
STARLINK-37636          
1 69143U 26110V   26156.28981770  .00172843  00000+0  88362-3 0  9999
2 69143  97.2845 352.5377 0001305  88.1397 272.0021 15.80858587  3762
STARLINK-37638          
1 69144U 26110W   26156.28906417  .00168147  00000+0  85947-3 0  9993
2 69144  97.2846 352.5385 0001655  78.9487 281.1967 15.80874322  3763
STARLINK-37657          
1 69145U 26110X   26156.25005787 -.02412061  00000+0 -19210-1 0  9990
2 69145  97.2854 352.4911 0001810  77.0196  47.6017 15.74682861  3799
STARLINK-37639          
1 69146U 26110Y   26156.22425986  .00206511  00000+0  10507-2 0  9993
2 69146  97.2846 352.4732 0001570 106.6560 253.4881 15.80875142  3754
STARLINK-37661          
1 69147U 26110Z   26156.25005787 -.02619977  00000+0 -26746-1 0  9999
2 69147  97.2853 352.4801 0001893  78.3417  19.3922 15.68527729  3794
STARLINK-37395          
1 69148U 26111A   26156.25005787  .00043452  00000+0  22261-3 0  9996
2 69148  53.1583 211.4859 0001393  90.0559 220.6846 15.80869827  3622
STARLINK-37346          
1 69149U 26111B   26156.25005787  .00058326  00000+0  29706-3 0  9994
2 69149  53.1582 211.4735 0000847  75.0714 241.6081 15.80872275  3629
STARLINK-37332          
1 69150U 26111C   26156.25005787  .00024797  00000+0  12878-3 0  9993
2 69150  53.1585 211.4570 0000954  83.7328 240.7243 15.80878243  3628
STARLINK-37297          
1 69151U 26111D   26156.25005787 -.00001754  00000+0 -53397-5 0  9997
2 69151  53.1584 211.4708 0001171  78.9139 238.9991 15.80895593  3625
STARLINK-37317          
1 69152U 26111E   26156.25005787  .00064986  00000+0  33044-3 0  9997
2 69152  53.1582 211.4476 0001295 101.6317 227.4630 15.80864338  3621
STARLINK-37374          
1 69153U 26111F   26156.25005787 -.00084033  00000+0 -42531-3 0  9996
2 69153  53.1585 211.4299 0001099  96.2408 241.1133 15.80925793  3624
STARLINK-37235          
1 69154U 26111G   26156.25005787 -.00138538  00000+0 -70725-3 0  9993
2 69154  53.1586 211.4378 0001337  53.2650 280.4366 15.80945353  3629
STARLINK-37329          
1 69155U 26111H   26156.25005787 -.00171968  00000+0 -88112-3 0  9997
2 69155  53.1584 211.4527 0000905  84.0573 242.4607 15.80972139  3628
STARLINK-37345          
1 69156U 26111J   26156.25005787  .00040193  00000+0  20624-3 0  9995
2 69156  53.1586 211.4359 0001284  51.9251 282.8412 15.80871174  3620
STARLINK-37353          
1 69157U 26111K   26156.25005787  .00047055  00000+0  24069-3 0  9997
2 69157  53.1586 211.4331 0000928  84.2820 251.7166 15.80868900  3620
STARLINK-37363          
1 69158U 26111L   26156.25005787  .00042863  00000+0  21892-3 0  9991
2 69158  53.1585 211.4089 0001069  97.8681 249.8352 15.80943191  3623
STARLINK-37343          
1 69159U 26111M   26156.25005787 -.00003593  00000+0 -14664-4 0  9991
2 69159  53.1588 211.3997 0001144  82.7379 269.3776 15.80880839  3621
STARLINK-37328          
1 69160U 26111N   26156.25005787  .00109020  00000+0  54833-3 0  9994
2 69160  53.1587 211.4069 0000817 114.1735 234.2417 15.80897172  3626
STARLINK-37311          
1 69161U 26111P   26156.25005787  .00093518  00000+0  47506-3 0  9998
2 69161  53.1588 211.3939 0001093 102.3960 252.4056 15.80742586  3628
STARLINK-36286          
1 69162U 26111Q   26156.25005787  .00082061  00000+0  41558-3 0  9991
2 69162  53.1588 211.3852 0001135 114.6728 244.3528 15.80861395  3622
STARLINK-37196          
1 69163U 26111R   26156.25005787 -.00126498  00000+0 -73176-3 0  9998
2 69163  53.1589 211.3868 0000778  77.7549 280.1327 15.78168999  3625
STARLINK-36288          
1 69164U 26111S   26156.25005787 -.00071496  00000+0 -41062-3 0  9995
2 69164  53.1591 211.3771 0000857  95.1081 267.4138 15.78095445  3628
STARLINK-37445          
1 69165U 26111T   26156.25005787  .00046016  00000+0  23544-3 0  9999
2 69165  53.1587 211.3615 0001136 111.1118 259.3411 15.80872076  3622
